AMC-3                   
1 24936U 97050A   26074.24059628 -.00000258  00000+0  00000+0 0  9994
2 24936   7.9147  65.1455 0003552 305.1484 177.1552  1.00270709 51493
NSS-11                  
1 26554U 00059A   26074.24519794  .00000025  00000+0  00000+0 0  9991
2 26554   1.8822  82.5243 0003122 277.0689  77.5196  1.00272130 40348
AMC-6                   
1 26580U 00067A   26074.25490464  .00000087  00000+0  00000+0 0  9990
2 26580   0.0189 345.8216 0003181  17.0556 126.6841  1.00272835 92958
AMC-11                  
1 28252U 04017A   26074.25958466 -.00000050  00000+0  00000+0 0  9999
2 28252   0.0674  79.6328 0003238 287.1813 148.3956  1.00272092 79925
AMC-15                  
1 28446U 04041A   26074.18947103 -.00000090  00000+0  00000+0 0  9993
2 28446   0.0388 311.5126 0002311  40.2231 144.2212  1.00272595 78364
NSS-10                  
1 28526U 05003A   26074.26194349 -.00000249  00000+0  00000+0 0  9992
2 28526   6.2132  71.5824 0003149 283.5487 234.5837  1.00272282 52216
ASTRA 1KR               
1 29055U 06012A   26074.27961642  .00000118  00000+0  00000+0 0  9994
2 29055   0.2300  82.0143 0003167 268.8807 301.6390  1.00274079 44754
ASTRA 1L                
1 31306U 07016A   26074.30943840 -.00000185  00000+0  00000+0 0  9990
2 31306   1.0774  82.2968 0003604 294.2959 243.1987  1.00269158 44040
ASTRA 4A                
1 32299U 07057A   26074.28255144  .00000032  00000+0  00000+0 0  9997
2 32299   0.0313 290.2260 0002420  74.7763 274.4075  1.00273193 50704
ASTRA 1M                
1 33436U 08057A   26074.27961642  .00000119  00000+0  00000+0 0  9994
2 33436   0.0577  69.3763 0001613   3.9875 219.3566  1.00273401 44791
NSS-9                   
1 33749U 09008A   26074.24658461  .00000071  00000+0  00000+0 0  9994
2 33749   1.0170  83.5681 0002073 268.1662  92.9497  1.00272934 62579
SES-7 (PROTOSTAR 2)     
1 34941U 09027A   26074.01778365 -.00000346  00000+0  00000+0 0  9997
2 34941   0.0370  79.2383 0001556 240.4285 327.6136  1.00271225 61686
NSS-12                  
1 36032U 09058A   26074.22162451  .00000071  00000+0  00000+0 0  9994
2 36032   0.0442   4.2629 0004883 336.0749 329.2665  1.00271852 59973
SES-1                   
1 36516U 10016A   26074.26157800 -.00000115  00000+0  00000+0 0  9993
2 36516   0.0491 286.1325 0002541  67.4448 172.4490  1.00272375 58095
ASTRA 3B                
1 36581U 10021A   26074.21495115  .00000137  00000+0  00000+0 0  9993
2 36581   1.2261  84.7531 0003293 285.2479 263.6935  1.00269466 57920
SES-3                   
1 37748U 11035A   26074.26123133 -.00000102  00000+0  00000+0 0  9991
2 37748   1.0820  84.1535 0003558 276.8198 162.9272  1.00272033 53656
ASTRA 1N                
1 37775U 11041A   26073.92886326  .00000119  00000+0  00000+0 0  9997
2 37775   0.0823  38.0518 0004686 349.8860 138.1720  1.00273441 43585
SES-2                   
1 37809U 11049A   26074.19311104 -.00000197  00000+0  00000+0 0  9997
2 37809   0.0369  74.0461 0002814 282.7933 158.4729  1.00272266 53020
QUETZSAT 1              
1 37826U 11054A   26074.26634469 -.00000242  00000+0  00000+0 0  9993
2 37826   0.0299 282.5185 0002737  86.1374 183.0722  1.00269915 48937
SES-4                   
1 38087U 12007A   26074.13461080 -.00000169  00000+0  00000+0 0  9993
2 38087   0.0320  63.2592 0002320 285.0691 210.8636  1.00273193 51286
SES-5                   
1 38652U 12036A   26074.28255144  .00000033  00000+0  00000+0 0  9990
2 38652   0.0644 306.6859 0001793  47.2719 285.6198  1.00271747 43518
ASTRA 2F                
1 38778U 12051A   26074.25391950  .00000149  00000+0  00000+0 0  9997
2 38778   0.0719 256.3917 0001994  24.4735  11.5782  1.00272783 40191
SES-6                   
1 39172U 13026A   26074.28617308 -.00000262  00000+0  00000+0 0  9997
2 39172   0.0475 302.9434 0002046  72.4992 219.9559  1.00270718 46781
O3B FM5                 
1 39188U 13031A   26074.09157039 -.00000020  00000+0  00000+0 0  9991
2 39188   0.0995  11.2024 0003286 333.8033  14.9812  5.00116494232334
O3B FM4                 
1 39189U 13031B   26072.41173487 -.00000022  00000+0  00000+0 0  9993
2 39189   0.0547 345.1246 0005098  15.5435 359.3289  5.00115278232249
O3B FM2                 
1 39190U 13031C   26073.87663637 -.00000020  00000+0  00000+0 0  9995
2 39190   0.0549 338.8631 0002826  11.4299   9.6981  5.00115986232395
O3B PFM                 
1 39191U 13031D   26065.09556941 -.00000026  00000+0  00000+0 0  9996
2 39191   0.0668   7.2787 0005147 352.3292   0.3862  5.00115906231517
ASTRA 2E                
1 39285U 13056A   26073.95396749  .00000149  00000+0  00000+0 0  9994
2 39285   0.0881  45.7219 0002613 301.8006 196.9541  1.00269254 45478
SES-8                   
1 39460U 13071A   26074.08651060 -.00000270  00000+0  00000+0 0  9997
2 39460   0.0369 262.8689 0001889 124.4065 271.5643  1.00272936 43499
ASTRA 5B                
1 39617U 14011B   26074.13447385  .00000136  00000+0  00000+0 0  9995
2 39617   0.0952 297.1875 0003788  38.2302 269.2327  1.00269723 43724
O3B FM3                 
1 40079U 14038A   26074.15726844 -.00000019  00000+0  00000+0 0  9991
2 40079   0.0529 353.7505 0000656  63.7945 302.4581  5.00115598208330
O3B FM7                 
1 40080U 14038B   26072.30434378 -.00000022  00000+0  00000+0 0  9990
2 40080   0.0586 348.6070 0004384 352.5506  18.8225  5.00115635213082
O3B FM6                 
1 40081U 14038C   26074.13036311 -.00000019  00000+0  00000+0 0  9995
2 40081   0.0547 351.3156 0002640   0.9701   7.7068  5.00115707213127
O3B FM8                 
1 40082U 14038D   26074.18367462 -.00000019  00000+0  00000+0 0  9995
2 40082   0.0555 350.6080 0002647   5.3351   4.0513  5.00115993213247
O3B FM10                
1 40348U 14083A   26070.41282342 -.00000024  00000+0  00000+0 0  9991
2 40348   0.0429 348.2570 0002651   1.0660  10.6675  5.00115268204999
O3B FM11                
1 40349U 14083B   26074.02357238 -.00000020  00000+0  00000+0 0  9996
2 40349   0.0573   0.3012 0003088 341.5889  18.0955  5.00115575205206
O3B FM12                
1 40350U 14083C   26074.05065926 -.00000020  00000+0  00000+0 0  9991
2 40350   0.0566 359.5634 0002612 347.4659  12.9606  5.00115981205219
O3B FM9                 
1 40351U 14083D   26074.07749042 -.00000020  00000+0  00000+0 0  9992
2 40351   0.0584   0.4596 0002719 352.5981   6.9352  5.00115908205368
ASTRA 2G                
1 40364U 14089A   26074.25391950  .00000000  00000+0  00000+0 0  9990
2 40364   0.0201 358.7217 0004487  34.8033 258.9447  1.00269178 41029
SES-9                   
1 41380U 16013A   26071.59819078 -.00000344  00000+0  00000+0 0  9990
2 41380   0.0283 280.9183 0001753 124.7546  88.1882  1.00271324 36472
SES-10                  
1 42432U 17017A   26072.77082808 -.00000273  00000+0  00000+0 0  9999
2 42432   0.0225  69.0512 0002549 296.9547  15.9789  1.00273246 32796
SES-15                  
1 42709U 17026A   26071.61751647  .00000060  00000+0  00000+0 0  9995
2 42709   0.0388 330.9168 0000706  38.8107 253.6487  1.00270524  6465
SES-11 (ECHOSTAR 105)   
1 42967U 17063A   26074.18955770 -.00000090  00000+0  00000+0 0  9994
2 42967   0.0312  58.8383 0002421 296.3024 140.9485  1.00272076 30780
SES-14                  
1 43175U 18012B   26071.34844264 -.00000278  00000+0  00000+0 0  9999
2 43175   0.0142  73.2078 0000900 285.1964 249.4941  1.00272273  6058
O3B FM15                
1 43231U 18024A   26074.14425745 -.00000019  00000+0  00000+0 0  9998
2 43231   0.0491   1.4753 0002676 348.5914   9.9247  5.00115704146324
O3B FM16                
1 43232U 18024B   26074.19662649 -.00000019  00000+0  00000+0 0  9990
2 43232   0.0456   3.7624 0002802 343.7498  12.4776  5.00115906146244
O3B FM14                
1 43233U 18024C   26071.63880927 -.00000023  00000+0  00000+0 0  9993
2 43233   0.0439   2.7730 0002842 349.0319   8.1868  5.00115666146122
O3B FM13                
1 43234U 18024D   26072.10444450 -.00000022  00000+0  00000+0 0  9993
2 43234   0.0487 334.7219 0003796 336.3210  48.9207  5.00115630146258
SES-12                  
1 43488U 18049A   26073.37342400 -.00000270  00000+0  00000+0 0  9998
2 43488   0.0192  63.5919 0001860 239.6464  98.1739  1.00271135 28460
O3B FM20                
1 44112U 19020A   26073.86362964 -.00000020  00000+0  00000+0 0  9997
2 44112   0.0522   0.0965 0002759 341.6917  18.1985  5.00115512126851
O3B FM19                
1 44113U 19020B   26074.09063635 -.00000020  00000+0  00000+0 0  9997
2 44113   0.0584 353.1915 0004213 354.1700  12.6246  5.00115992126731
O3B FM17                
1 44114U 19020C   26072.77146366 -.00000022  00000+0  00000+0 0  9996
2 44114   0.0382 342.2165 0002664   5.4523  12.3211  5.00115442126752
O3B FM18                
1 44115U 19020D   26074.11699512 -.00000019  00000+0  00000+0 0  9999
2 44115   0.0525   0.3281 0002729 354.2505   5.4151  5.00115245126948
SES-17                  
1 49332U 21095A   26074.05435713 -.00000273  00000+0  00000+0 0  9996
2 49332   0.0280  57.7273 0000952 306.6346 120.7525  1.00269528 16910
SES-22                  
1 52933U 22071A   26074.18279767  .00000103  00000+0  00000+0 0  9992
2 52933   0.0175  99.6203 0000987 255.9997 103.9659  1.00273792  6589
SES-20                  
1 53960U 22123A   26072.90628869 -.00000101  00000+0  00000+0 0  9999
2 53960   0.0192 104.9887 0001720 326.8603 322.8278  1.00270457 12575
SES-21                  
1 53961U 22123B   26074.25568464  .00000069  00000+0  00000+0 0  9996
2 53961   0.0288  67.4686 0001063 280.5175 145.9027  1.00270508  6275
O3B MPOWER F1           
1 54755U 22174A   26074.25386464 -.00000019  00000+0  00000+0 0  9998
2 54755   0.0635 350.3812 0005455  19.5992  96.3391  5.00114895 60660
O3B MPOWER F2           
1 54756U 22174B   26062.53384886 -.00000028  00000+0  00000+0 0  9993
2 54756   0.1272 326.2177 0046125  76.0907 318.0389  5.00690325 60150
SES-18                  
1 55970U 23038A   26074.14928267 -.00000102  00000+0  00000+0 0  9992
2 55970   0.0377 265.2265 0002005  53.8956 164.2649  1.00271883 11167
SES-19                  
1 55971U 23038B   26074.25490464  .00000087  00000+0  00000+0 0  9999
2 55971   0.0515 281.2053 0001585  75.3458 133.1659  1.00271481 11141
O3B MPOWER F4           
1 56367U 23059A   26048.24074746 -.00000015  00000+0  00000+0 0  9995
2 56367   0.0593   7.9241 0006460 334.3658  17.6828  5.00119607 52601
O3B MPOWER F5           
1 58346U 23175A   26073.96004608 -.00000020  00000+0  00000+0 0  9996
2 58346   0.0409   5.0488 0004167 355.0199 359.9279  5.00115729 44727
ASTRA 1P (SES-24)       
1 60086U 24115A   26071.38933580  .00000120  00000+0  00000+0 0  9999
2 60086   0.0525 348.7446 0004591 336.6618   3.9688  1.00269354  6226
O3B MPOWER F7           
1 62362U 24244A   26074.12694384 -.00000019  00000+0  00000+0 0  9990
2 62362   0.0707   3.5418 0006106 349.2741   7.1720  5.00115174 21823
O3B MPOWER F8           
1 62363U 24244B   26073.89402625 -.00000020  00000+0  00000+0 0  9991
2 62363   0.0488 316.0416 0006551  29.7203  14.2162  5.00115704 16144
